{
  "type": "FeatureCollection",
  "metadata": {
    "crs": "EPSG:4326",
    "heroScenario": true
  },
  "features": [
    {
      "type": "Feature",
      "id": "nynj-service-TMP",
      "geometry": {
        "type": "LineString",
        "coordinates": [
          [
            -74.0628183428194,
            40.81181172345151
          ],
          [
            -74.069833,
            40.807664
          ],
          [
            -74.0768467803092,
            40.80351585179301
          ]
        ]
      },
      "properties": {
        "project_id": "nynj-service-TMP",
        "host_region_code": 8,
        "city_id": "nynj",
        "host_region": "New York/New Jersey",
        "category": "service",
        "category_name": "Extra transit service",
        "phase": "temporary",
        "area_id": "nynj-meadowlands-station",
        "area_short_code": "NYNJ-MRS",
        "exact_area_name": "Meadowlands Rail Station and aerial walkway",
        "analysis_radius_m": 250,
        "geometry_type": "animated_route",
        "length_m": 1500,
        "width_m": 2,
        "height_m": 0.5,
        "bearing_deg": 232,
        "z_offset_m": 0.05,
        "color": "#F59E0B",
        "opacity": 0.55,
        "allocation_cents": 132000000,
        "render_enabled": "Yes",
        "design_description": "extra rail/bus vehicle-hours; standby operators; event timetable",
        "implementation_status": "concept_only",
        "spatial_precision": "planning_anchor ±25–100 m",
        "evidence_class": "engineering_assumption",
        "source_url": "https://www.njtransit.com/meadowlands"
      }
    },
    {
      "type": "Feature",
      "id": "nynj-service-PERM",
      "geometry": {
        "type": "LineString",
        "coordinates": [
          [
            -74.06220280802846,
            40.811133748000046
          ],
          [
            -74.069833,
            40.807664
          ],
          [
            -74.07746239403798,
            40.804193749419156
          ]
        ]
      },
      "properties": {
        "project_id": "nynj-service-PERM",
        "host_region_code": 8,
        "city_id": "nynj",
        "host_region": "New York/New Jersey",
        "category": "service",
        "category_name": "Extra transit service",
        "phase": "permanent",
        "area_id": "nynj-meadowlands-station",
        "area_short_code": "NYNJ-MRS",
        "exact_area_name": "Meadowlands Rail Station and aerial walkway",
        "analysis_radius_m": 250,
        "geometry_type": "animated_route",
        "length_m": 1500,
        "width_m": 2,
        "height_m": 1,
        "bearing_deg": 239,
        "z_offset_m": 0.1,
        "color": "#2563EB",
        "opacity": 0.85,
        "allocation_cents": 33000000,
        "render_enabled": "Yes",
        "design_description": "recurring major-event service plan; fleet and stabling readiness",
        "implementation_status": "concept_only",
        "spatial_precision": "planning_anchor ±25–100 m",
        "evidence_class": "engineering_assumption",
        "source_url": "https://www.njtransit.com/meadowlands"
      }
    },
    {
      "type": "Feature",
      "id": "nynj-buslane-TMP",
      "geometry": {
        "type": "LineString",
        "coordinates": [
          [
            -74.0530196990573,
            40.81659948152588
          ],
          [
            -74.07075,
            40.81145
          ],
          [
            -74.08847754834395,
            40.806297804825434
          ]
        ]
      },
      "properties": {
        "project_id": "nynj-buslane-TMP",
        "host_region_code": 8,
        "city_id": "nynj",
        "host_region": "New York/New Jersey",
        "category": "buslane",
        "category_name": "Transit-priority lanes",
        "phase": "temporary",
        "area_id": "nynj-american-dream-corridor",
        "area_short_code": "NYNJ-ADM",
        "exact_area_name": "American Dream–MetLife protected corridor",
        "analysis_radius_m": 350,
        "geometry_type": "line_extrusion",
        "length_m": 3200,
        "width_m": 3.5,
        "height_m": 0.1,
        "bearing_deg": 249,
        "z_offset_m": 0.05,
        "color": "#F59E0B",
        "opacity": 0.55,
        "allocation_cents": 32400000,
        "render_enabled": "Yes",
        "design_description": "cone- and paint-defined bus lane with enforcement",
        "implementation_status": "concept_only",
        "spatial_precision": "planning_anchor ±25–100 m",
        "evidence_class": "engineering_assumption",
        "source_url": "https://www.njtransit.com/press-releases/new-jersey-interagency-transportation-after-action-report-aar-njny-stadium-fifa"
      }
    },
    {
      "type": "Feature",
      "id": "nynj-buslane-PERM",
      "geometry": {
        "type": "LineString",
        "coordinates": [
          [
            -74.05232287715276,
            40.81492568842731
          ],
          [
            -74.07075,
            40.81145
          ],
          [
            -74.08917519158477,
            40.80797138028543
          ]
        ]
      },
      "properties": {
        "project_id": "nynj-buslane-PERM",
        "host_region_code": 8,
        "city_id": "nynj",
        "host_region": "New York/New Jersey",
        "category": "buslane",
        "category_name": "Transit-priority lanes",
        "phase": "permanent",
        "area_id": "nynj-american-dream-corridor",
        "area_short_code": "NYNJ-ADM",
        "exact_area_name": "American Dream–MetLife protected corridor",
        "analysis_radius_m": 350,
        "geometry_type": "line_extrusion",
        "length_m": 3200,
        "width_m": 3.5,
        "height_m": 0.1,
        "bearing_deg": 256,
        "z_offset_m": 0.1,
        "color": "#2563EB",
        "opacity": 0.85,
        "allocation_cents": 39600000,
        "render_enabled": "Yes",
        "design_description": "dedicated or peak-period transit-priority lane",
        "implementation_status": "concept_only",
        "spatial_precision": "planning_anchor ±25–100 m",
        "evidence_class": "engineering_assumption",
        "source_url": "https://www.njtransit.com/press-releases/new-jersey-interagency-transportation-after-action-report-aar-njny-stadium-fifa"
      }
    },
    {
      "type": "Feature",
      "id": "nynj-signals-TMP",
      "geometry": {
        "type": "Point",
        "coordinates": [
          -74.07075,
          40.81145
        ]
      },
      "properties": {
        "project_id": "nynj-signals-TMP",
        "host_region_code": 8,
        "city_id": "nynj",
        "host_region": "New York/New Jersey",
        "category": "signals",
        "category_name": "Signal timing plans",
        "phase": "temporary",
        "area_id": "nynj-american-dream-corridor",
        "area_short_code": "NYNJ-ADM",
        "exact_area_name": "American Dream–MetLife protected corridor",
        "analysis_radius_m": 350,
        "geometry_type": "point_model",
        "length_m": 1,
        "width_m": 1,
        "height_m": 3,
        "bearing_deg": 266,
        "z_offset_m": 0.05,
        "color": "#F59E0B",
        "opacity": 0.55,
        "allocation_cents": 9000000,
        "render_enabled": "Yes",
        "design_description": "police/manual traffic control and temporary timing plan",
        "implementation_status": "concept_only",
        "spatial_precision": "planning_anchor ±25–100 m",
        "evidence_class": "engineering_assumption",
        "source_url": "https://www.njtransit.com/press-releases/new-jersey-interagency-transportation-after-action-report-aar-njny-stadium-fifa"
      }
    },
    {
      "type": "Feature",
      "id": "nynj-signals-PERM",
      "geometry": {
        "type": "Point",
        "coordinates": [
          -74.07075,
          40.81145
        ]
      },
      "properties": {
        "project_id": "nynj-signals-PERM",
        "host_region_code": 8,
        "city_id": "nynj",
        "host_region": "New York/New Jersey",
        "category": "signals",
        "category_name": "Signal timing plans",
        "phase": "permanent",
        "area_id": "nynj-american-dream-corridor",
        "area_short_code": "NYNJ-ADM",
        "exact_area_name": "American Dream–MetLife protected corridor",
        "analysis_radius_m": 350,
        "geometry_type": "point_model",
        "length_m": 1,
        "width_m": 1,
        "height_m": 6,
        "bearing_deg": 273,
        "z_offset_m": 0.1,
        "color": "#2563EB",
        "opacity": 0.85,
        "allocation_cents": 27000000,
        "render_enabled": "Yes",
        "design_description": "adaptive controllers and transit signal priority",
        "implementation_status": "concept_only",
        "spatial_precision": "planning_anchor ±25–100 m",
        "evidence_class": "engineering_assumption",
        "source_url": "https://www.njtransit.com/press-releases/new-jersey-interagency-transportation-after-action-report-aar-njny-stadium-fifa"
      }
    },
    {
      "type": "Feature",
      "id": "nynj-hub-TMP",
      "geometry": {
        "type": "Polygon",
        "coordinates": [
          [
            [
              -74.07135050997542,
              40.811278345983354
            ],
            [
              -74.07119031438609,
              40.8118035208963
            ],
            [
              -74.07014949103659,
              40.81162165162305
            ],
            [
              -74.07030968618683,
              40.811096476710105
            ],
            [
              -74.07135050997542,
              40.811278345983354
            ]
          ]
        ]
      },
      "properties": {
        "project_id": "nynj-hub-TMP",
        "host_region_code": 8,
        "city_id": "nynj",
        "host_region": "New York/New Jersey",
        "category": "hub",
        "category_name": "Hub-to-stadium shuttle package",
        "phase": "temporary",
        "area_id": "nynj-american-dream-corridor",
        "area_short_code": "NYNJ-ADM",
        "exact_area_name": "American Dream–MetLife protected corridor",
        "analysis_radius_m": 350,
        "geometry_type": "polygon_extrusion",
        "length_m": 90,
        "width_m": 60,
        "height_m": 3,
        "bearing_deg": 283,
        "z_offset_m": 0.05,
        "color": "#F59E0B",
        "opacity": 0.55,
        "allocation_cents": 60000000,
        "render_enabled": "Yes",
        "design_description": "pop-up shuttle zone; temporary shelters and dispatch",
        "implementation_status": "concept_only",
        "spatial_precision": "planning_anchor ±25–100 m",
        "evidence_class": "engineering_assumption",
        "source_url": "https://www.njtransit.com/press-releases/new-jersey-interagency-transportation-after-action-report-aar-njny-stadium-fifa"
      }
    },
    {
      "type": "Feature",
      "id": "nynj-hub-PERM",
      "geometry": {
        "type": "Polygon",
        "coordinates": [
          [
            [
              -74.07137367351427,
              40.81133501564053
            ],
            [
              -74.07113010871896,
              40.8118414997867
            ],
            [
              -74.07012632815528,
              40.8115649820567
            ],
            [
              -74.07036989193553,
              40.81105849791052
            ],
            [
              -74.07137367351427,
              40.81133501564053
            ]
          ]
        ]
      },
      "properties": {
        "project_id": "nynj-hub-PERM",
        "host_region_code": 8,
        "city_id": "nynj",
        "host_region": "New York/New Jersey",
        "category": "hub",
        "category_name": "Hub-to-stadium shuttle package",
        "phase": "permanent",
        "area_id": "nynj-american-dream-corridor",
        "area_short_code": "NYNJ-ADM",
        "exact_area_name": "American Dream–MetLife protected corridor",
        "analysis_radius_m": 350,
        "geometry_type": "polygon_extrusion",
        "length_m": 90,
        "width_m": 60,
        "height_m": 6,
        "bearing_deg": 290,
        "z_offset_m": 0.1,
        "color": "#2563EB",
        "opacity": 0.85,
        "allocation_cents": 90000000,
        "render_enabled": "Yes",
        "design_description": "permanent multimodal mobility hub",
        "implementation_status": "concept_only",
        "spatial_precision": "planning_anchor ±25–100 m",
        "evidence_class": "engineering_assumption",
        "source_url": "https://www.njtransit.com/press-releases/new-jersey-interagency-transportation-after-action-report-aar-njny-stadium-fifa"
      }
    },
    {
      "type": "Feature",
      "id": "nynj-parkride-TMP",
      "geometry": {
        "type": "Polygon",
        "coordinates": [
          [
            [
              -74.07232575689439,
              40.811360594139984
            ],
            [
              -74.07143558234542,
              40.81252753992495
            ],
            [
              -74.06917425874492,
              40.811539393112575
            ],
            [
              -74.07006442003686,
              40.810372447327616
            ],
            [
              -74.07232575689439,
              40.811360594139984
            ]
          ]
        ]
      },
      "properties": {
        "project_id": "nynj-parkride-TMP",
        "host_region_code": 8,
        "city_id": "nynj",
        "host_region": "New York/New Jersey",
        "category": "parkride",
        "category_name": "Park-and-ride package",
        "phase": "temporary",
        "area_id": "nynj-american-dream-corridor",
        "area_short_code": "NYNJ-ADM",
        "exact_area_name": "American Dream–MetLife protected corridor",
        "analysis_radius_m": 350,
        "geometry_type": "polygon_extrusion",
        "length_m": 220,
        "width_m": 150,
        "height_m": 0.2,
        "bearing_deg": 300,
        "z_offset_m": 0.05,
        "color": "#F59E0B",
        "opacity": 0.55,
        "allocation_cents": 0,
        "render_enabled": "No",
        "design_description": "leased intercept lots and temporary signing",
        "implementation_status": "concept_only",
        "spatial_precision": "planning_anchor ±25–100 m",
        "evidence_class": "engineering_assumption",
        "source_url": "https://www.njtransit.com/press-releases/new-jersey-interagency-transportation-after-action-report-aar-njny-stadium-fifa"
      }
    },
    {
      "type": "Feature",
      "id": "nynj-parkride-PERM",
      "geometry": {
        "type": "Polygon",
        "coordinates": [
          [
            [
              -74.07232840847286,
              40.81150660580094
            ],
            [
              -74.0712569660146,
              40.81258274552858
            ],
            [
              -74.06917161113172,
              40.811393382335034
            ],
            [
              -74.07024303438419,
              40.81031724260739
            ],
            [
              -74.07232840847286,
              40.81150660580094
            ]
          ]
        ]
      },
      "properties": {
        "project_id": "nynj-parkride-PERM",
        "host_region_code": 8,
        "city_id": "nynj",
        "host_region": "New York/New Jersey",
        "category": "parkride",
        "category_name": "Park-and-ride package",
        "phase": "permanent",
        "area_id": "nynj-american-dream-corridor",
        "area_short_code": "NYNJ-ADM",
        "exact_area_name": "American Dream–MetLife protected corridor",
        "analysis_radius_m": 350,
        "geometry_type": "polygon_extrusion",
        "length_m": 220,
        "width_m": 150,
        "height_m": 0.2,
        "bearing_deg": 307,
        "z_offset_m": 0.1,
        "color": "#2563EB",
        "opacity": 0.85,
        "allocation_cents": 0,
        "render_enabled": "No",
        "design_description": "permanent park-and-ride with charging and transit access",
        "implementation_status": "concept_only",
        "spatial_precision": "planning_anchor ±25–100 m",
        "evidence_class": "engineering_assumption",
        "source_url": "https://www.njtransit.com/press-releases/new-jersey-interagency-transportation-after-action-report-aar-njny-stadium-fifa"
      }
    },
    {
      "type": "Feature",
      "id": "nynj-ped-TMP",
      "geometry": {
        "type": "LineString",
        "coordinates": [
          [
            -74.06335822295505,
            40.802407929358715
          ],
          [
            -74.069833,
            40.807664
          ],
          [
            -74.07630880276783,
            40.81291970864942
          ]
        ]
      },
      "properties": {
        "project_id": "nynj-ped-TMP",
        "host_region_code": 8,
        "city_id": "nynj",
        "host_region": "New York/New Jersey",
        "category": "ped",
        "category_name": "Protected pedestrian corridor",
        "phase": "temporary",
        "area_id": "nynj-meadowlands-station",
        "area_short_code": "NYNJ-MRS",
        "exact_area_name": "Meadowlands Rail Station and aerial walkway",
        "analysis_radius_m": 250,
        "geometry_type": "line_extrusion",
        "length_m": 1600,
        "width_m": 6,
        "height_m": 0.15,
        "bearing_deg": 317,
        "z_offset_m": 0.05,
        "color": "#F59E0B",
        "opacity": 0.55,
        "allocation_cents": 21000000,
        "render_enabled": "Yes",
        "design_description": "barricaded protected corridor; marshals and lighting",
        "implementation_status": "concept_only",
        "spatial_precision": "planning_anchor ±25–100 m",
        "evidence_class": "engineering_assumption",
        "source_url": "https://www.njtransit.com/meadowlands"
      }
    },
    {
      "type": "Feature",
      "id": "nynj-ped-PERM",
      "geometry": {
        "type": "LineString",
        "coordinates": [
          [
            -74.06425271318453,
            40.80184984692436
          ],
          [
            -74.069833,
            40.807664
          ],
          [
            -74.07541426471803,
            40.81347788418882
          ]
        ]
      },
      "properties": {
        "project_id": "nynj-ped-PERM",
        "host_region_code": 8,
        "city_id": "nynj",
        "host_region": "New York/New Jersey",
        "category": "ped",
        "category_name": "Protected pedestrian corridor",
        "phase": "permanent",
        "area_id": "nynj-meadowlands-station",
        "area_short_code": "NYNJ-MRS",
        "exact_area_name": "Meadowlands Rail Station and aerial walkway",
        "analysis_radius_m": 250,
        "geometry_type": "line_extrusion",
        "length_m": 1600,
        "width_m": 6,
        "height_m": 0.15,
        "bearing_deg": 324,
        "z_offset_m": 0.1,
        "color": "#0F766E",
        "opacity": 0.85,
        "allocation_cents": 39000000,
        "render_enabled": "Yes",
        "design_description": "widened sidewalk; lighting; drainage and separation",
        "implementation_status": "concept_only",
        "spatial_precision": "planning_anchor ±25–100 m",
        "evidence_class": "engineering_assumption",
        "source_url": "https://www.njtransit.com/meadowlands"
      }
    },
    {
      "type": "Feature",
      "id": "nynj-bike-TMP",
      "geometry": {
        "type": "LineString",
        "coordinates": [
          [
            -74.06151031782775,
            40.794745294098774
          ],
          [
            -74.069833,
            40.807664
          ],
          [
            -74.07815892319,
            40.82058210766036
          ]
        ]
      },
      "properties": {
        "project_id": "nynj-bike-TMP",
        "host_region_code": 8,
        "city_id": "nynj",
        "host_region": "New York/New Jersey",
        "category": "bike",
        "category_name": "Protected bicycle access",
        "phase": "temporary",
        "area_id": "nynj-meadowlands-station",
        "area_short_code": "NYNJ-MRS",
        "exact_area_name": "Meadowlands Rail Station and aerial walkway",
        "analysis_radius_m": 250,
        "geometry_type": "line_extrusion",
        "length_m": 3200,
        "width_m": 3,
        "height_m": 0.1,
        "bearing_deg": 334,
        "z_offset_m": 0.05,
        "color": "#F59E0B",
        "opacity": 0.55,
        "allocation_cents": 0,
        "render_enabled": "No",
        "design_description": "pop-up protected lane and attended bike valet",
        "implementation_status": "concept_only",
        "spatial_precision": "planning_anchor ±25–100 m",
        "evidence_class": "engineering_assumption",
        "source_url": "https://www.njtransit.com/meadowlands"
      }
    },
    {
      "type": "Feature",
      "id": "nynj-bike-PERM",
      "geometry": {
        "type": "LineString",
        "coordinates": [
          [
            -74.06365199815416,
            40.794073854457245
          ],
          [
            -74.069833,
            40.807664
          ],
          [
            -74.07601653400647,
            40.821253815571595
          ]
        ]
      },
      "properties": {
        "project_id": "nynj-bike-PERM",
        "host_region_code": 8,
        "city_id": "nynj",
        "host_region": "New York/New Jersey",
        "category": "bike",
        "category_name": "Protected bicycle access",
        "phase": "permanent",
        "area_id": "nynj-meadowlands-station",
        "area_short_code": "NYNJ-MRS",
        "exact_area_name": "Meadowlands Rail Station and aerial walkway",
        "analysis_radius_m": 250,
        "geometry_type": "line_extrusion",
        "length_m": 3200,
        "width_m": 3,
        "height_m": 0.1,
        "bearing_deg": 341,
        "z_offset_m": 0.1,
        "color": "#0F766E",
        "opacity": 0.85,
        "allocation_cents": 0,
        "render_enabled": "No",
        "design_description": "protected bikeway and secure long-term parking",
        "implementation_status": "concept_only",
        "spatial_precision": "planning_anchor ±25–100 m",
        "evidence_class": "engineering_assumption",
        "source_url": "https://www.njtransit.com/meadowlands"
      }
    },
    {
      "type": "Feature",
      "id": "nynj-tnc-TMP",
      "geometry": {
        "type": "Polygon",
        "coordinates": [
          [
            [
              -74.07107874866223,
              40.81172892043678
            ],
            [
              -74.07055122110759,
              40.81179215779869
            ],
            [
              -74.07042125416363,
              40.8111710789261
            ],
            [
              -74.07094877678034,
              40.811107841564194
            ],
            [
              -74.07107874866223,
              40.81172892043678
            ]
          ]
        ]
      },
      "properties": {
        "project_id": "nynj-tnc-TMP",
        "host_region_code": 8,
        "city_id": "nynj",
        "host_region": "New York/New Jersey",
        "category": "tnc",
        "category_name": "Managed rideshare hub",
        "phase": "temporary",
        "area_id": "nynj-american-dream-corridor",
        "area_short_code": "NYNJ-ADM",
        "exact_area_name": "American Dream–MetLife protected corridor",
        "analysis_radius_m": 350,
        "geometry_type": "polygon_extrusion",
        "length_m": 70,
        "width_m": 45,
        "height_m": 0.2,
        "bearing_deg": 351,
        "z_offset_m": 0.05,
        "color": "#F59E0B",
        "opacity": 0.55,
        "allocation_cents": 60000000,
        "render_enabled": "Yes",
        "design_description": "staffed geofenced pickup with temporary lane control",
        "implementation_status": "concept_only",
        "spatial_precision": "planning_anchor ±25–100 m",
        "evidence_class": "engineering_assumption",
        "source_url": "https://www.njtransit.com/press-releases/new-jersey-interagency-transportation-after-action-report-aar-njny-stadium-fifa"
      }
    },
    {
      "type": "Feature",
      "id": "nynj-tnc-PERM",
      "geometry": {
        "type": "Polygon",
        "coordinates": [
          [
            [
              -74.07103138665956,
              40.81175716459171
            ],
            [
              -74.07049760873926,
              40.8117712724298
            ],
            [
              -74.07046861594883,
              40.811142834791504
            ],
            [
              -74.0710023888135,
              40.81112872695343
            ],
            [
              -74.07103138665956,
              40.81175716459171
            ]
          ]
        ]
      },
      "properties": {
        "project_id": "nynj-tnc-PERM",
        "host_region_code": 8,
        "city_id": "nynj",
        "host_region": "New York/New Jersey",
        "category": "tnc",
        "category_name": "Managed rideshare hub",
        "phase": "permanent",
        "area_id": "nynj-american-dream-corridor",
        "area_short_code": "NYNJ-ADM",
        "exact_area_name": "American Dream–MetLife protected corridor",
        "analysis_radius_m": 350,
        "geometry_type": "polygon_extrusion",
        "length_m": 70,
        "width_m": 45,
        "height_m": 0.2,
        "bearing_deg": 358,
        "z_offset_m": 0.1,
        "color": "#2563EB",
        "opacity": 0.85,
        "allocation_cents": 60000000,
        "render_enabled": "Yes",
        "design_description": "off-street rideshare hub with accessible bays",
        "implementation_status": "concept_only",
        "spatial_precision": "planning_anchor ±25–100 m",
        "evidence_class": "engineering_assumption",
        "source_url": "https://www.njtransit.com/press-releases/new-jersey-interagency-transportation-after-action-report-aar-njny-stadium-fifa"
      }
    },
    {
      "type": "Feature",
      "id": "nynj-wayfinding-TMP",
      "geometry": {
        "type": "Point",
        "coordinates": [
          -74.069833,
          40.807664
        ]
      },
      "properties": {
        "project_id": "nynj-wayfinding-TMP",
        "host_region_code": 8,
        "city_id": "nynj",
        "host_region": "New York/New Jersey",
        "category": "wayfinding",
        "category_name": "Multilingual wayfinding",
        "phase": "temporary",
        "area_id": "nynj-meadowlands-station",
        "area_short_code": "NYNJ-MRS",
        "exact_area_name": "Meadowlands Rail Station and aerial walkway",
        "analysis_radius_m": 250,
        "geometry_type": "point_model",
        "length_m": 1,
        "width_m": 1,
        "height_m": 2.5,
        "bearing_deg": 8,
        "z_offset_m": 0.05,
        "color": "#F59E0B",
        "opacity": 0.55,
        "allocation_cents": 13500000,
        "render_enabled": "Yes",
        "design_description": "portable signs; digital messages; multilingual ambassadors",
        "implementation_status": "concept_only",
        "spatial_precision": "planning_anchor ±25–100 m",
        "evidence_class": "engineering_assumption",
        "source_url": "https://www.njtransit.com/meadowlands"
      }
    },
    {
      "type": "Feature",
      "id": "nynj-wayfinding-PERM",
      "geometry": {
        "type": "Point",
        "coordinates": [
          -74.069833,
          40.807664
        ]
      },
      "properties": {
        "project_id": "nynj-wayfinding-PERM",
        "host_region_code": 8,
        "city_id": "nynj",
        "host_region": "New York/New Jersey",
        "category": "wayfinding",
        "category_name": "Multilingual wayfinding",
        "phase": "permanent",
        "area_id": "nynj-meadowlands-station",
        "area_short_code": "NYNJ-MRS",
        "exact_area_name": "Meadowlands Rail Station and aerial walkway",
        "analysis_radius_m": 250,
        "geometry_type": "point_model",
        "length_m": 1,
        "width_m": 1,
        "height_m": 4,
        "bearing_deg": 15,
        "z_offset_m": 0.1,
        "color": "#2563EB",
        "opacity": 0.85,
        "allocation_cents": 16500000,
        "render_enabled": "Yes",
        "design_description": "fixed multilingual physical and digital wayfinding",
        "implementation_status": "concept_only",
        "spatial_precision": "planning_anchor ±25–100 m",
        "evidence_class": "engineering_assumption",
        "source_url": "https://www.njtransit.com/meadowlands"
      }
    },
    {
      "type": "Feature",
      "id": "nynj-station-TMP",
      "geometry": {
        "type": "Point",
        "coordinates": [
          -74.069833,
          40.807664
        ]
      },
      "properties": {
        "project_id": "nynj-station-TMP",
        "host_region_code": 8,
        "city_id": "nynj",
        "host_region": "New York/New Jersey",
        "category": "station",
        "category_name": "Station-capacity package",
        "phase": "temporary",
        "area_id": "nynj-meadowlands-station",
        "area_short_code": "NYNJ-MRS",
        "exact_area_name": "Meadowlands Rail Station and aerial walkway",
        "analysis_radius_m": 250,
        "geometry_type": "glb_model",
        "length_m": 120,
        "width_m": 45,
        "height_m": 6,
        "bearing_deg": 25,
        "z_offset_m": 0.05,
        "color": "#F59E0B",
        "opacity": 0.55,
        "allocation_cents": 50000000,
        "render_enabled": "Yes",
        "design_description": "temporary gates; queue barriers; portable fare equipment",
        "implementation_status": "concept_only",
        "spatial_precision": "planning_anchor ±25–100 m",
        "evidence_class": "engineering_assumption",
        "source_url": "https://www.njtransit.com/meadowlands"
      }
    },
    {
      "type": "Feature",
      "id": "nynj-station-PERM",
      "geometry": {
        "type": "Point",
        "coordinates": [
          -74.069833,
          40.807664
        ]
      },
      "properties": {
        "project_id": "nynj-station-PERM",
        "host_region_code": 8,
        "city_id": "nynj",
        "host_region": "New York/New Jersey",
        "category": "station",
        "category_name": "Station-capacity package",
        "phase": "permanent",
        "area_id": "nynj-meadowlands-station",
        "area_short_code": "NYNJ-MRS",
        "exact_area_name": "Meadowlands Rail Station and aerial walkway",
        "analysis_radius_m": 250,
        "geometry_type": "glb_model",
        "length_m": 120,
        "width_m": 45,
        "height_m": 18,
        "bearing_deg": 32,
        "z_offset_m": 0.1,
        "color": "#2563EB",
        "opacity": 0.85,
        "allocation_cents": 200000000,
        "render_enabled": "Yes",
        "design_description": "platform, entry and circulation expansion",
        "implementation_status": "concept_only",
        "spatial_precision": "planning_anchor ±25–100 m",
        "evidence_class": "engineering_assumption",
        "source_url": "https://www.njtransit.com/meadowlands"
      }
    },
    {
      "type": "Feature",
      "id": "nynj-toc-TMP",
      "geometry": {
        "type": "Point",
        "coordinates": [
          -74.07075,
          40.81145
        ]
      },
      "properties": {
        "project_id": "nynj-toc-TMP",
        "host_region_code": 8,
        "city_id": "nynj",
        "host_region": "New York/New Jersey",
        "category": "toc",
        "category_name": "Integrated traffic operations",
        "phase": "temporary",
        "area_id": "nynj-american-dream-corridor",
        "area_short_code": "NYNJ-ADM",
        "exact_area_name": "American Dream–MetLife protected corridor",
        "analysis_radius_m": 350,
        "geometry_type": "glb_model",
        "length_m": 60,
        "width_m": 40,
        "height_m": 4,
        "bearing_deg": 42,
        "z_offset_m": 0.05,
        "color": "#F59E0B",
        "opacity": 0.55,
        "allocation_cents": 37500000,
        "render_enabled": "Yes",
        "design_description": "unified incident command and temporary sensor feeds",
        "implementation_status": "concept_only",
        "spatial_precision": "planning_anchor ±25–100 m",
        "evidence_class": "engineering_assumption",
        "source_url": "https://www.njtransit.com/press-releases/new-jersey-interagency-transportation-after-action-report-aar-njny-stadium-fifa"
      }
    },
    {
      "type": "Feature",
      "id": "nynj-toc-PERM",
      "geometry": {
        "type": "Point",
        "coordinates": [
          -74.07075,
          40.81145
        ]
      },
      "properties": {
        "project_id": "nynj-toc-PERM",
        "host_region_code": 8,
        "city_id": "nynj",
        "host_region": "New York/New Jersey",
        "category": "toc",
        "category_name": "Integrated traffic operations",
        "phase": "permanent",
        "area_id": "nynj-american-dream-corridor",
        "area_short_code": "NYNJ-ADM",
        "exact_area_name": "American Dream–MetLife protected corridor",
        "analysis_radius_m": 350,
        "geometry_type": "glb_model",
        "length_m": 60,
        "width_m": 40,
        "height_m": 12,
        "bearing_deg": 49,
        "z_offset_m": 0.1,
        "color": "#2563EB",
        "opacity": 0.85,
        "allocation_cents": 112500000,
        "render_enabled": "Yes",
        "design_description": "integrated operations center and adaptive dispatch",
        "implementation_status": "concept_only",
        "spatial_precision": "planning_anchor ±25–100 m",
        "evidence_class": "engineering_assumption",
        "source_url": "https://www.njtransit.com/press-releases/new-jersey-interagency-transportation-after-action-report-aar-njny-stadium-fifa"
      }
    },
    {
      "type": "Feature",
      "id": "nynj-access-TMP",
      "geometry": {
        "type": "LineString",
        "coordinates": [
          [
            -74.07390210944783,
            40.80581326222635
          ],
          [
            -74.069833,
            40.807664
          ],
          [
            -74.06576366358442,
            40.809514594817344
          ]
        ]
      },
      "properties": {
        "project_id": "nynj-access-TMP",
        "host_region_code": 8,
        "city_id": "nynj",
        "host_region": "New York/New Jersey",
        "category": "access",
        "category_name": "ADA/microtransit access",
        "phase": "temporary",
        "area_id": "nynj-meadowlands-station",
        "area_short_code": "NYNJ-MRS",
        "exact_area_name": "Meadowlands Rail Station and aerial walkway",
        "analysis_radius_m": 250,
        "geometry_type": "line_extrusion",
        "length_m": 800,
        "width_m": 3,
        "height_m": 0.1,
        "bearing_deg": 59,
        "z_offset_m": 0.05,
        "color": "#F59E0B",
        "opacity": 0.55,
        "allocation_cents": 0,
        "render_enabled": "No",
        "design_description": "accessible shuttles; temporary ramps and staffed assistance",
        "implementation_status": "concept_only",
        "spatial_precision": "planning_anchor ±25–100 m",
        "evidence_class": "engineering_assumption",
        "source_url": "https://www.njtransit.com/meadowlands"
      }
    },
    {
      "type": "Feature",
      "id": "nynj-access-PERM",
      "geometry": {
        "type": "LineString",
        "coordinates": [
          [
            -74.07416977095225,
            40.80620240784025
          ],
          [
            -74.069833,
            40.807664
          ],
          [
            -74.06549603801724,
            40.809125429779776
          ]
        ]
      },
      "properties": {
        "project_id": "nynj-access-PERM",
        "host_region_code": 8,
        "city_id": "nynj",
        "host_region": "New York/New Jersey",
        "category": "access",
        "category_name": "ADA/microtransit access",
        "phase": "permanent",
        "area_id": "nynj-meadowlands-station",
        "area_short_code": "NYNJ-MRS",
        "exact_area_name": "Meadowlands Rail Station and aerial walkway",
        "analysis_radius_m": 250,
        "geometry_type": "line_extrusion",
        "length_m": 800,
        "width_m": 3,
        "height_m": 0.1,
        "bearing_deg": 66,
        "z_offset_m": 0.1,
        "color": "#2563EB",
        "opacity": 0.85,
        "allocation_cents": 0,
        "render_enabled": "No",
        "design_description": "ADA ramps; tactile guidance; accessible first/last-mile network",
        "implementation_status": "concept_only",
        "spatial_precision": "planning_anchor ±25–100 m",
        "evidence_class": "engineering_assumption",
        "source_url": "https://www.njtransit.com/meadowlands"
      }
    }
  ]
}
